[{"OBJECT_NAME":"STARLINK-34392","OBJECT_ID":"2025-130P","EPOCH":"2026-03-09T11:00:16.044192","MEAN_MOTION":15.30191197,"ECCENTRICITY":0.00013373,"INCLINATION":53.1595,"RA_OF_ASC_NODE":89.8922,"ARG_OF_PERICENTER":93.8643,"MEAN_ANOMALY":266.2511,"EPHEMERIS_TYPE":0,"CLASSIFICATION_TYPE":"U","NORAD_CAT_ID":64451,"ELEMENT_SET_NO":999,"REV_AT_EPOCH":4066,"BSTAR":0.0012063987,"MEAN_MOTION_DOT":0.00035532,"MEAN_MOTION_DDOT":0},{"OBJECT_NAME":"KUIPER-00180","OBJECT_ID":"2026-030E","EPOCH":"2026-03-09T22:29:40.634304","MEAN_MOTION":15.31865817,"ECCENTRICITY":0.00157227,"INCLINATION":51.8823,"RA_OF_ASC_NODE":218.464,"ARG_OF_PERICENTER":75.5448,"MEAN_ANOMALY":284.728,"EPHEMERIS_TYPE":0,"CLASSIFICATION_TYPE":"U","NORAD_CAT_ID":67768,"ELEMENT_SET_NO":999,"REV_AT_EPOCH":512,"BSTAR":0.011360708,"MEAN_MOTION_DOT":0.00373574,"MEAN_MOTION_DDOT":0}]
